{"type": "FeatureCollection", "features": [ {"type": "Feature", "properties": {"norad_id": 66667, "name": "PELICAN-5", "group": "last-30-days", "lat": -60.15672633589276, "lon": -121.91442963913336, "alt_km": 518.9894121888838, "timestamp": "2025-12-25T16:53:13.371173+00:00", "meta": {"OBJECT_NAME": "PELICAN-5", "OBJECT_ID": "2025-276B", "EPOCH": "2025-12-25T06:20:01.991616", "MEAN_MOTION": 15.17616719, "ECCENTRICITY": 0.000232, "INCLINATION": 97.441, "RA_OF_ASC_NODE": 70.8216, "ARG_OF_PERICENTER": 202.1553, "MEAN_ANOMALY": 157.9581, "EPHEMERIS_TYPE": 0, "CLASSIFICATION_TYPE": "U", "NORAD_CAT_ID": 66667, "ELEMENT_SET_NO": 999, "REV_AT_EPOCH": 402, "BSTAR": 0.00026640988, "MEAN_MOTION_DOT": 5.291e-05, "MEAN_MOTION_DDOT": 0}, "tle": {"line1": "1 66667U 25276B   25359.26391194  .00005291  00000+0  26641-3 0  9990", "line2": "2 66667  97.4410  70.8216 0002320 202.1553 157.9581 15.17616719  4023"}}, "geometry": {"type": "Point", "coordinates": [-121.91442963913336, -60.15672633589276]}}, {"type": "Feature", "properties": {"norad_id": 66668, "name": "TRANSPORTER-15C", "group": "last-30-days", "lat": 22.248068474327358, "lon": -105.76989315772249, "alt_km": 514.5740742839853, "timestamp": "2025-12-25T16:53:13.371183+00:00", "meta": {"OBJECT_NAME": "TRANSPORTER-15C", "OBJECT_ID": "2025-276C", "EPOCH": "2025-12-25T00:22:00.515136", "MEAN_MOTION": 15.17270171, "ECCENTRICITY": 0.00077552, "INCLINATION": 97.4267, "RA_OF_ASC_NODE": 70.4966, "ARG_OF_PERICENTER": 258.2873, "MEAN_ANOMALY": 101.7491, "EPHEMERIS_TYPE": 0, "CLASSIFICATION_TYPE": "U", "NORAD_CAT_ID": 66668, "ELEMENT_SET_NO": 999, "REV_AT_EPOCH": 398, "BSTAR": 0.0012101315, "MEAN_MOTION_DOT": 0.00024107, "MEAN_MOTION_DDOT": 0}, "tle": {"line1": "1 66668U 25276C   25359.01528374  .00024107  00000+0  12101-2 0  9998", "line2": "2 66668  97.4267  70.4966 0007755 258.2873 101.7491 15.17270171  3985"}}, "geometry": {"type": "Point", "coordinates": [-105.76989315772249, 22.248068474327358]}}, {"type": "Feature", "properties": {"norad_id": 66669, "name": "TRANSPORTER-15D", "group": "last-30-days", "lat": 10.548521971180579, "lon": -107.42620382323548, "alt_km": 515.1274367482374, "timestamp": "2025-12-25T16:53:13.371193+00:00", "meta": {"OBJECT_NAME": "TRANSPORTER-15D", "OBJECT_ID": "2025-276D", "EPOCH": "2025-12-25T05:03:52.728480", "MEAN_MOTION": 15.17447336, "ECCENTRICITY": 0.00074521, "INCLINATION": 97.428, "RA_OF_ASC_NODE": 70.6986, "ARG_OF_PERICENTER": 261.3981, "MEAN_ANOMALY": 98.6408, "EPHEMERIS_TYPE": 0, "CLASSIFICATION_TYPE": "U", "NORAD_CAT_ID": 66669, "ELEMENT_SET_NO": 999, "REV_AT_EPOCH": 401, "BSTAR": 0.0012991341, "MEAN_MOTION_DOT": 0.00026022, "MEAN_MOTION_DDOT": 0}, "tle": {"line1": "1 66669U 25276D   25359.21102695  .00026022  00000+0  12991-2 0  9990", "line2": "2 66669  97.4280  70.6986 0007452 261.3981  98.6408 15.17447336  4010"}}, "geometry": {"type": "Point", "coordinates": [-107.42620382323548, 10.548521971180579]}}, {"type": "Feature", "properties": {"norad_id": 66670, "name": "HUNITY", "group": "last-30-days", "lat": 14.526807326815764, "lon": -106.87899693904767, "alt_km": 515.1863790023008, "timestamp": "2025-12-25T16:53:13.371203+00:00", "meta": {"OBJECT_NAME": "HUNITY", "OBJECT_ID": "2025-276E", "EPOCH": "2025-12-24T22:45:02.550816", "MEAN_MOTION": 15.17341022, "ECCENTRICITY": 0.00071828, "INCLINATION": 97.4295, "RA_OF_ASC_NODE": 70.4422, "ARG_OF_PERICENTER": 262.604, "MEAN_ANOMALY": 97.4378, "EPHEMERIS_TYPE": 0, "CLASSIFICATION_TYPE": "U", "NORAD_CAT_ID": 66670, "ELEMENT_SET_NO": 999, "REV_AT_EPOCH": 397, "BSTAR": 0.0012061576, "MEAN_MOTION_DOT": 0.00024074, "MEAN_MOTION_DDOT": 0}, "tle": {"line1": "1 66670U 25276E   25358.94794619  .00024074  00000+0  12062-2 0  9998", "line2": "2 66670  97.4295  70.4422 0007182 262.6040  97.4378 15.17341022  3973"}}, "geometry": {"type": "Point", "coordinates": [-106.87899693904767, 14.526807326815764]}}, {"type": "Feature", "properties": {"norad_id": 66671, "name": "TRANSPORTER-15F", "group": "last-30-days", "lat": 4.960358727138544, "lon": -108.12316335326855, "alt_km": 515.2648902107076, "timestamp": "2025-12-25T16:53:13.371215+00:00", "meta": {"OBJECT_NAME": "TRANSPORTER-15F", "OBJECT_ID": "2025-276F", "EPOCH": "2025-12-25T03:27:18.337536", "MEAN_MOTION": 15.17170782, "ECCENTRICITY": 0.00050509, "INCLINATION": 97.4418, "RA_OF_ASC_NODE": 70.6772, "ARG_OF_PERICENTER": 241.3933, "MEAN_ANOMALY": 118.6793, "EPHEMERIS_TYPE": 0, "CLASSIFICATION_TYPE": "U", "NORAD_CAT_ID": 66671, "ELEMENT_SET_NO": 999, "REV_AT_EPOCH": 400, "BSTAR": 0.00074142199, "MEAN_MOTION_DOT": 0.00014677, "MEAN_MOTION_DDOT": 0}, "tle": {"line1": "1 66671U 25276F   25359.14396224  .00014677  00000+0  74142-3 0  9998", "line2": "2 66671  97.4418  70.6772 0005050 241.3933 118.6793 15.17170782  4003"}}, "geometry": {"type": "Point", "coordinates": [-108.12316335326855, 4.960358727138544]}}, {"type": "Feature", "properties": {"norad_id": 66672, "name": "TRANSPORTER-15G", "group": "last-30-days", "lat": 36.118515623528026, "lon": -103.324304600224, "alt_km": 513.8609954961248, "timestamp": "2025-12-25T16:53:13.371226+00:00", "meta": {"OBJECT_NAME": "TRANSPORTER-15G", "OBJECT_ID": "2025-276G", "EPOCH": "2025-12-25T06:45:19.902240", "MEAN_MOTION": 15.16646946, "ECCENTRICITY": 0.00055369, "INCLINATION": 97.439, "RA_OF_ASC_NODE": 70.7905, "ARG_OF_PERICENTER": 239.8109, "MEAN_ANOMALY": 120.2576, "EPHEMERIS_TYPE": 0, "CLASSIFICATION_TYPE": "U", "NORAD_CAT_ID": 66672, "ELEMENT_SET_NO": 999, "REV_AT_EPOCH": 402, "BSTAR": 0.00028779487, "MEAN_MOTION_DOT": 5.566e-05, "MEAN_MOTION_DDOT": 0}, "tle": {"line1": "1 66672U 25276G   25359.28148035  .00005566  00000+0  28779-3 0  9991", "line2": "2 66672  97.4390  70.7905 0005536 239.8109 120.2576 15.16646946  4027"}}, "geometry": {"type": "Point", "coordinates": [-103.324304600224, 36.118515623528026]}}, {"type": "Feature", "properties": {"norad_id": 66673, "name": "TRANSPORTER-15H", "group": "last-30-days", "lat": 0.49205705855821963, "lon": -108.7276368439336, "alt_km": 508.9486918936109, "timestamp": "2025-12-25T16:53:13.371238+00:00", "meta": {"OBJECT_NAME": "TRANSPORTER-15H", "OBJECT_ID": "2025-276H", "EPOCH": "2025-12-24T21:08:16.208160", "MEAN_MOTION": 15.18860763, "ECCENTRICITY": 0.0010895, "INCLINATION": 97.436, "RA_OF_ASC_NODE": 70.3973, "ARG_OF_PERICENTER": 293.3865, "MEAN_ANOMALY": 66.6223, "EPHEMERIS_TYPE": 0, "CLASSIFICATION_TYPE": "U", "NORAD_CAT_ID": 66673, "ELEMENT_SET_NO": 999, "REV_AT_EPOCH": 396, "BSTAR": 0.056292, "MEAN_MOTION_DOT": 0.01286251, "MEAN_MOTION_DDOT": 0}, "tle": {"line1": "1 66673U 25276H   25358.88074315  .01286251  00000+0  56292-1 0  9998", "line2": "2 66673  97.4360  70.3973 0010895 293.3865  66.6223 15.18860763  3965"}}, "geometry": {"type": "Point", "coordinates": [-108.7276368439336, 0.49205705855821963]}}, {"type": "Feature", "properties": {"norad_id": 66674, "name": "TRANSPORTER-15J", "group": "last-30-days", "lat": 25.39766845063509, "lon": -105.24178286086888, "alt_km": 514.8029215932002, "timestamp": "2025-12-25T16:53:13.371250+00:00", "meta": {"OBJECT_NAME": "TRANSPORTER-15J", "OBJECT_ID": "2025-276J", "EPOCH": "2025-12-24T22:47:31.865568", "MEAN_MOTION": 15.16766946, "ECCENTRICITY": 0.00052619, "INCLINATION": 97.4367, "RA_OF_ASC_NODE": 70.4632, "ARG_OF_PERICENTER": 246.0824, "MEAN_ANOMALY": 113.9858, "EPHEMERIS_TYPE": 0, "CLASSIFICATION_TYPE": "U", "NORAD_CAT_ID": 66674, "ELEMENT_SET_NO": 999, "REV_AT_EPOCH": 397, "BSTAR": 0.00061090876, "MEAN_MOTION_DOT": 0.00011939, "MEAN_MOTION_DDOT": 0}, "tle": {"line1": "1 66674U 25276J   25358.94967437  .00011939  00000+0  61091-3 0  9995", "line2": "2 66674  97.4367  70.4632 0005261 246.0824 113.9858 15.16766946  3974"}}, "geometry": {"type": "Point", "coordinates": [-105.24178286086888, 25.39766845063509]}}, {"type": "Feature", "properties": {"norad_id": 66675, "name": "TRANSPORTER-15K", "group": "last-30-days", "lat": 11.531042229987145, "lon": -107.26065721473557, "alt_km": 515.6392280047303, "timestamp": "2025-12-25T16:53:13.371261+00:00", "meta": {"OBJECT_NAME": "TRANSPORTER-15K", "OBJECT_ID": "2025-276K", "EPOCH": "2025-12-25T01:53:59.672832", "MEAN_MOTION": 15.17040244, "ECCENTRICITY": 0.00054509, "INCLINATION": 97.4384, "RA_OF_ASC_NODE": 70.5991, "ARG_OF_PERICENTER": 251.3095, "MEAN_ANOMALY": 108.7547, "EPHEMERIS_TYPE": 0, "CLASSIFICATION_TYPE": "U", "NORAD_CAT_ID": 66675, "ELEMENT_SET_NO": 999, "REV_AT_EPOCH": 399, "BSTAR": 0.00023807205, "MEAN_MOTION_DOT": 4.644e-05, "MEAN_MOTION_DDOT": 0}, "tle": {"line1": "1 66675U 25276K   25359.07916288  .00004644  00000+0  23807-3 0  9997", "line2": "2 66675  97.4384  70.5991 0005450 251.3095 108.7547 15.17040244  3998"}}, "geometry": {"type": "Point", "coordinates": [-107.26065721473557, 11.531042229987145]}}, {"type": "Feature", "properties": {"norad_id": 66676, "name": "TRANSPORTER-15L", "group": "last-30-days", "lat": 23.028085776679262, "lon": -105.60874944078462, "alt_km": 514.7906909585963, "timestamp": "2025-12-25T16:53:13.371271+00:00", "meta": {"OBJECT_NAME": "TRANSPORTER-15L", "OBJECT_ID": "2025-276L", "EPOCH": "2025-12-25T06:41:55.518720", "MEAN_MOTION": 15.16839703, "ECCENTRICITY": 0.00047949, "INCLINATION": 97.4382, "RA_OF_ASC_NODE": 70.7914, "ARG_OF_PERICENTER": 244.128, "MEAN_ANOMALY": 115.9459, "EPHEMERIS_TYPE": 0, "CLASSIFICATION_TYPE": "U", "NORAD_CAT_ID": 66676, "ELEMENT_SET_NO": 999, "REV_AT_EPOCH": 402, "BSTAR": 0.00094334721, "MEAN_MOTION_DOT": 0.00018526, "MEAN_MOTION_DDOT": 0}, "tle": {"line1": "1 66676U 25276L   25359.27911480  .00018526  00000+0  94335-3 0  9997", "line2": "2 66676  97.4382  70.7914 0004794 244.1280 115.9459 15.16839703  4022"}}, "geometry": {"type": "Point", "coordinates": [-105.60874944078462, 23.028085776679262]}}]}